{
    "CCSDS_OMM_VERS": "3.0",
    "COMMENT": "GENERATED VIA SPACE-TRACK.ORG API",
    "CREATION_DATE": "2025-11-24T07:36:20",
    "ORIGINATOR": "18 SPCS",
    "OBJECT_NAME": "COSMOS 2557 (GLONASS)",
    "OBJECT_ID": "2022-075A",
    "CENTER_NAME": "EARTH",
    "REF_FRAME": "TEME",
    "TIME_SYSTEM": "UTC",
    "MEAN_ELEMENT_THEORY": "SGP4",
    "EPOCH": "2025-11-24T01:00:26.024832",
    "MEAN_MOTION": "2.13101993",
    "ECCENTRICITY": "0.00137920",
    "INCLINATION": "64.4201",
    "RA_OF_ASC_NODE": "321.7094",
    "ARG_OF_PERICENTER": "275.6768",
    "MEAN_ANOMALY": "84.1794",
    "EPHEMERIS_TYPE": "0",
    "CLASSIFICATION_TYPE": "U",
    "NORAD_CAT_ID": "52984",
    "ELEMENT_SET_NO": "999",
    "REV_AT_EPOCH": "2634",
    "BSTAR": "0.00000000000000",
    "MEAN_MOTION_DOT": "-0.00000029",
    "MEAN_MOTION_DDOT": "0.0000000000000",
    "SEMIMAJOR_AXIS": "25508.025",
    "PERIOD": "675.733",
    "APOAPSIS": "19165.071",
    "PERIAPSIS": "19094.709",
    "OBJECT_TYPE": "PAYLOAD",
    "RCS_SIZE": "LARGE",
    "COUNTRY_CODE": "CIS",
    "LAUNCH_DATE": "2022-07-07",
    "SITE": "PKMTR",
    "DECAY_DATE": null,
    "FILE": "4897168",
    "GP_ID": "303371780",
    "TLE_LINE0": "0 COSMOS 2557 (GLONASS)",
    "TLE_LINE1": "1 52984U 22075A   25328.04196788 -.00000029  00000-0  00000+0 0  9998",
    "TLE_LINE2": "2 52984  64.4201 321.7094 0013792 275.6768  84.1794  2.13101993 26343"
}